NORAD_CAT_ID,OBJECT_NAME,OBJECT_TYPE,EPOCH,MEAN_MOTION,ECCENTRICITY,INCLINATION,RA_OF_ASC_NODE,ARG_OF_PERICENTER,MEAN_ANOMALY,BSTAR,MEAN_MOTION_DOT,MEAN_MOTION_DDOT,TLE_LINE0,TLE_LINE1,TLE_LINE2,SEMIMAJOR_AXIS,PERIOD,APOGEE,PERIGEE,DECAYED
53935.0,STARLINK-5000,PAYLOAD,2023-09-24 10:39:33,15.08840575,0.0001251,53.2172,356.8906,87.3672,272.7464,0.00076724,0.00011944,0.0,0 STARLINK-5000,1 53935U 22119BB  23267.44414177  .00011944  00000-0  76724-3 0  9990,2 53935  53.2172 356.8906 0001251  87.3672 272.7464 15.08840575 56305,6917.879,95.438,540.609,538.878,0.0
53935.0,STARLINK-5000,PAYLOAD,2023-09-24 13:50:19,15.08850804,0.000129,53.2168,356.2933,94.1735,265.9404,0.001301,0.00020484,0.0,0 STARLINK-5000,1 53935U 22119BB  23267.57662037  .00020484  00000-0  13010-2 0  9991,2 53935  53.2168 356.2933 0001290  94.1735 265.9404 15.08850804 56745,6917.847,95.437,540.605,538.82,0.0
53935.0,STARLINK-5000,PAYLOAD,2023-09-24 18:36:29,15.08860567,0.0001298,53.2167,355.4014,98.1259,261.988,0.0014286,0.00022534,0.0,0 STARLINK-5000,1 53935U 22119BB  23267.77533774  .00022534  00000-0  14286-2 0  9992,2 53935  53.2167 355.4014 0001298  98.1259 261.9880 15.08860567 56772,6917.818,95.436,540.58,538.785,0.0
53935.0,STARLINK-5000,PAYLOAD,2023-09-25 05:44:11,15.08856405,0.0001172,53.217,353.3218,92.4842,267.6285,0.0019271,0.00030529,0.0,0 STARLINK-5000,1 53935U 22119BB  23268.23902162  .00030529  00000-0  19271-2 0  9997,2 53935  53.2170 353.3218 0001172  92.4842 267.6285 15.08856405 56425,6917.83,95.437,540.506,538.884,0.0
53935.0,STARLINK-5000,PAYLOAD,2023-09-25 12:05:43,15.0886558,0.000141,53.2168,352.1323,96.0334,264.0819,0.0023422,0.00037211,0.0,0 STARLINK-5000,1 53935U 22119BB  23268.50397851  .00037211  00000-0  23422-2 0  9998,2 53935  53.2168 352.1323 0001410  96.0334 264.0819 15.08865580 56885,6917.802,95.436,540.643,538.692,0.0
53935.0,STARLINK-5000,PAYLOAD,2023-09-25 16:51:52,15.08881464,0.0001472,53.217,351.2393,97.1234,262.9926,0.0026125,0.00041583,0.0,0 STARLINK-5000,1 53935U 22119BB  23268.70269420  .00041583  00000-0  26125-2 0  9990,2 53935  53.2170 351.2393 0001472  97.1234 262.9926 15.08881464 56913,6917.754,95.435,540.637,538.6,0.0
53935.0,STARLINK-5000,PAYLOAD,2023-09-26 10:21:08,15.08827798,0.0001751,53.2179,347.9683,103.3893,256.7295,0.0010764,0.00016879,0.0,0 STARLINK-5000,1 53935U 22119BB  23269.43134705  .00016879  00000-0  10764-2 0  9990,2 53935  53.2179 347.9683 0001751 103.3893 256.7295 15.08827798 56603,6917.918,95.438,540.994,538.571,0.0
53935.0,STARLINK-5000,PAYLOAD,2023-09-26 11:56:31,15.0883169,0.0001638,53.2181,347.6714,100.1686,259.9491,0.0015187,0.00023959,0.0,0 STARLINK-5000,1 53935U 22119BB  23269.49758752  .00023959  00000-0  15187-2 0  9991,2 53935  53.2181 347.6714 0001638 100.1686 259.9491 15.08831690 57034,6917.906,95.438,540.904,538.638,0.0
53935.0,STARLINK-5000,PAYLOAD,2023-09-27 11:47:18,15.08861928,0.0001695,53.2191,343.2136,80.1575,279.9608,0.0010575,0.00016592,0.0,0 STARLINK-5000,1 53935U 22119BB  23270.49118456  .00016592  00000-0  10575-2 0  9995,2 53935  53.2191 343.2136 0001695  80.1575 279.9608 15.08861928 57187,6917.813,95.436,540.851,538.506,0.0
53935.0,STARLINK-5000,PAYLOAD,2023-09-28 10:02:42,15.08840882,0.0001522,53.2179,339.0475,89.2964,270.8202,0.00017709,2.532e-05,0.0,0 STARLINK-5000,1 53935U 22119BB  23271.41854714  .00002532  00000-0  17709-3 0  9998,2 53935  53.2179 339.0475 0001522  89.2964 270.8202 15.08840882 56908,6917.878,95.437,540.796,538.69,0.0
53935.0,STARLINK-5000,PAYLOAD,2023-09-29 09:53:30,15.08832966,0.000157,53.2172,334.5864,76.8534,283.2633,-5.5418e-05,-1.17e-05,0.0,0 STARLINK-5000,1 53935U 22119BB  23272.41215498 -.00001170  00000-0 -55418-4 0  9998,2 53935  53.2172 334.5864 0001570  76.8534 283.2633 15.08832966 57058,6917.902,95.438,540.853,538.681,0.0
53935.0,STARLINK-5000,PAYLOAD,2023-09-29 13:04:16,15.08835156,0.0001618,53.2175,333.9918,71.2822,288.8346,3.8102e-05,3.18e-06,0.0,0 STARLINK-5000,1 53935U 22119BB  23272.54463545  .00000318  00000-0  38102-4 0  9992,2 53935  53.2175 333.9918 0001618  71.2822 288.8346 15.08835156 57490,6917.895,95.438,540.88,538.641,0.0
53935.0,STARLINK-5000,PAYLOAD,2023-09-29 14:39:39,15.08840465,0.0001523,53.2172,333.6938,79.2405,280.8758,3.5575e-05,2.78e-06,0.0,0 STARLINK-5000,1 53935U 22119BB  23272.61087269  .00000278  00000-0  35575-4 0  9991,2 53935  53.2172 333.6938 0001523  79.2405 280.8758 15.08840465 57089,6917.879,95.438,540.798,538.69,0.0
53935.0,STARLINK-5000,PAYLOAD,2023-09-30 11:19:39,15.0887012,0.0001524,53.2163,329.8275,75.5862,284.53,0.00075379,0.00011739,0.0,0 STARLINK-5000,1 53935U 22119BB  23273.47198096  .00011739  00000-0  75379-3 0  9996,2 53935  53.2163 329.8275 0001524  75.5862 284.5300 15.08870120 57217,6917.788,95.436,540.708,538.599,0.0
53935.0,STARLINK-5000,PAYLOAD,2023-10-01 00:02:44,15.08858565,0.0002046,53.2136,327.4562,93.1675,266.9552,7.2598e-05,8.68e-06,0.0,0 STARLINK-5000,1 53935U 22119BB  23274.00189946  .00000868  00000-0  72598-4 0  9992,2 53935  53.2136 327.4562 0002046  93.1675 266.9552 15.08858565 57298,6917.824,95.436,541.104,538.273,0.0
53935.0,STARLINK-5000,PAYLOAD,2023-10-01 12:45:49,15.08849702,0.0001492,53.2155,325.0728,95.443,264.6732,0.0017546,0.00027754,0.0,0 STARLINK-5000,1 53935U 22119BB  23274.53181936  .00027754  00000-0  17546-2 0  9994,2 53935  53.2155 325.0728 0001492  95.4430 264.6732 15.08849702 57798,6917.851,95.437,540.748,538.684,0.0
53935.0,STARLINK-5000,PAYLOAD,2023-10-01 20:42:45,15.08831953,0.0001941,53.2159,323.5846,81.8702,278.251,0.0010106,0.00015829,0.0,0 STARLINK-5000,1 53935U 22119BB  23274.86302791  .00015829  00000-0  10106-2 0  9999,2 53935  53.2159 323.5846 0001941  81.8702 278.2510 15.08831953 57846,6917.905,95.438,541.113,538.427,0.0
53935.0,STARLINK-5000,PAYLOAD,2023-10-02 09:25:51,15.08825761,0.0001378,53.2159,321.2059,83.634,276.4809,0.0014311,0.00022552,0.0,0 STARLINK-5000,1 53935U 22119BB  23275.39295445  .00022552  00000-0  14311-2 0  9998,2 53935  53.2159 321.2059 0001378  83.6340 276.4809 15.08825761 57503,6917.924,95.438,540.742,538.836,0.0
53935.0,STARLINK-5000,PAYLOAD,2023-10-02 20:33:33,15.08841433,0.0001607,53.2151,319.1233,83.9267,276.1908,0.0013907,0.00021915,0.0,0 STARLINK-5000,1 53935U 22119BB  23275.85663693  .00021915  00000-0  13907-2 0  9995,2 53935  53.2151 319.1233 0001607  83.9267 276.1908 15.08841433 57995,6917.876,95.437,540.853,538.629,0.0
53935.0,STARLINK-5000,PAYLOAD,2023-10-03 09:16:38,15.08858092,0.0001721,53.2159,316.7435,87.7481,272.3708,0.0010382,0.00016282,0.0,0 STARLINK-5000,1 53935U 22119BB  23276.38655289  .00016282  00000-0  10382-2 0  9991,2 53935  53.2159 316.7435 0001721  87.7481 272.3708 15.08858092 57655,6917.825,95.436,540.881,538.5,0.0
53935.0,STARLINK-5000,PAYLOAD,2023-10-03 14:02:47,15.0886651,0.0001712,53.216,315.8509,89.1614,270.9574,0.0011201,0.00017596,0.0,0 STARLINK-5000,1 53935U 22119BB  23276.58526937  .00017596  00000-0  11201-2 0  9990,2 53935  53.2160 315.8509 0001712  89.1614 270.9574 15.08866510 58103,6917.799,95.436,540.849,538.48,0.0
53935.0,STARLINK-5000,PAYLOAD,2023-10-04 09:07:24,15.08856709,0.0001696,53.2159,312.2832,90.0424,270.0762,0.00069984,0.00010873,0.0,0 STARLINK-5000,1 53935U 22119BB  23277.38014951  .00010873  00000-0  69984-3 0  9990,2 53935  53.2159 312.2832 0001696  90.0424 270.0762 15.08856709 57807,6917.829,95.436,540.868,538.521,0.0
53935.0,STARLINK-5000,PAYLOAD,2023-10-04 12:18:11,15.08857615,0.0001697,53.2163,311.6887,91.2757,268.843,0.00080438,0.00012543,0.0,0 STARLINK-5000,1 53935U 22119BB  23277.51262902  .00012543  00000-0  80438-3 0  9999,2 53935  53.2163 311.6887 0001697  91.2757 268.8430 15.08857615 58241,6917.827,95.436,540.866,538.518,0.0
53935.0,STARLINK-5000,PAYLOAD,2023-10-04 13:53:34,15.08860774,0.0001697,53.2164,311.3919,90.255,269.8637,0.00091261,0.00014274,0.0,0 STARLINK-5000,1 53935U 22119BB  23277.57886803  .00014274  00000-0  91261-3 0  9996,2 53935  53.2164 311.3919 0001697  90.2550 269.8637 15.08860774 58256,6917.817,95.436,540.856,538.508,0.0
53935.0,STARLINK-5000,PAYLOAD,2023-10-05 08:58:12,15.08851823,0.0001808,53.2176,307.8277,86.786,273.3339,0.0008194,0.00012781,0.0,0 STARLINK-5000,1 53935U 22119BB  23278.37375338  .00012781  00000-0  81940-3 0  9995,2 53935  53.2176 307.8277 0001808  86.7860 273.3339 15.08851823 57954,6917.844,95.437,540.96,538.459,0.0
53935.0,STARLINK-5000,PAYLOAD,2023-10-05 12:08:58,15.08857824,0.0001767,53.2163,307.2293,80.5001,279.6191,0.0011816,0.00018576,0.0,0 STARLINK-5000,1 53935U 22119BB  23278.50623267  .00018576  00000-0  11816-2 0  9999,2 53935  53.2163 307.2293 0001767  80.5001 279.6191 15.08857824 58396,6917.826,95.436,540.913,538.469,0.0
53935.0,STARLINK-5000,PAYLOAD,2023-10-05 18:30:31,15.08835364,0.0002214,53.2163,306.0393,81.8269,278.2974,0.00078511,0.00012228,0.0,0 STARLINK-5000,1 53935U 22119BB  23278.77119804  .00012228  00000-0  78511-3 0  9999,2 53935  53.2163 306.0393 0002214  81.8269 278.2974 15.08835364 58010,6917.895,95.438,541.291,538.228,0.0
53935.0,STARLINK-5000,PAYLOAD,2023-10-06 10:24:22,15.08858166,0.0001584,53.2163,303.0671,86.2861,273.8312,0.0015989,0.00025263,0.0,0 STARLINK-5000,1 53935U 22119BB  23279.43359323  .00025263  00000-0  15989-2 0  9997,2 53935  53.2163 303.0671 0001584  86.2861 273.8312 15.08858166 58531,6917.825,95.436,540.786,538.594,0.0
53935.0,STARLINK-5000,PAYLOAD,2023-10-06 18:21:18,15.08850663,0.0002019,53.216,301.5796,90.4154,269.707,0.0010311,0.00016165,0.0,0 STARLINK-5000,1 53935U 22119BB  23279.76479637  .00016165  00000-0  10311-2 0  9999,2 53935  53.2160 301.5796 0002019  90.4154 269.7070 15.08850663 58163,6917.848,95.437,541.11,538.316,0.0
53935.0,STARLINK-5000,PAYLOAD,2023-10-07 10:15:09,15.0884715,0.0001854,53.2166,298.6071,101.7596,258.3605,0.0008758,0.00013681,0.0,0 STARLINK-5000,1 53935U 22119BB  23280.42719494  .00013681  00000-0  87580-3 0  9995,2 53935  53.2166 298.6071 0001854 101.7596 258.3605 15.08847150 58269,6917.859,95.437,541.006,538.441,0.0
